0 SL-16 DEB
1 22807U 93059F   13283.65104291  .00000049  00000-0  86620-4 0  9157
2 22807 071.0182 266.3954 0206480 157.8710 315.8398 13.71569145  4401
0 SL-16 DEB
1 22807U 93059F   13286.12341976  .00000020  00000-0  59057-4 0  9169
2 22807 071.0185 261.5676 0206347 154.3397 283.5956 13.71569713  4746
0 SL-16 DEB
1 22807U 93059F   13288.40189818  .00000060  00000-0  97424-4 0  9172
2 22807 071.0189 257.1185 0206230 151.0808 013.9567 13.71569986  5058
0 SL-16 DEB
1 22807U 93059F   13290.58038431  .00000072  00000-0  10799-3 0  9181
2 22807 071.0193 252.8648 0206129 147.9819 330.5763 13.71570146  5351
0 SL-16 DEB
1 22807U 93059F   13293.20268618  .00000084  00000-0  11962-3 0  9192
2 22807 071.0194 247.7448 0206028 144.2419 318.6174 13.71570456  5714
0 SL-16 DEB
1 22807U 93059F   13295.53987620  .00000075  00000-0  11105-3 0  9202
2 22807 071.0194 243.1817 0205926 140.8941 338.8889 13.71571187  6037
